0 JCSAT 6
1 25630U 99006A   13281.85015645 -.00000167  00000-0  10000-3 0  3060
2 25630 000.0109 236.0519 0001492 347.9827 181.6304 01.00271520 53537
0 JCSAT 6
1 25630U 99006A   13282.84014170 -.00000170  00000-0  10000-3 0  3077
2 25630 000.0092 235.1215 0001389 333.5050 194.4157 01.00271552 53549
0 JCSAT 6
1 25630U 99006A   13283.35884634  .00000000  00000-0  10000-3 0  3086
2 25630 000.0078 280.1182 0001703 260.2324 049.9285 01.00266874 53497
0 JCSAT 6
1 25630U 99006A   13283.65894209 -.00000173  00000-0  10000-3 0  3080
2 25630 000.0076 235.0760 0001512 324.9910 138.5536 01.00271518 53544
0 JCSAT 6
1 25630U 99006A   13285.97056184 -.00000179  00000-0  10000-3 0  3096
2 25630 000.0038 228.1873 0001550 335.2368 249.6516 01.00271199 53574
0 JCSAT 6
1 25630U 99006A   13286.57467711 -.00000180  00000-0  10000-3 0  3109
2 25630 000.0029 227.9519 0001598 329.9280 113.2732 01.00271136 53570
0 JCSAT 6
1 25630U 99006A   13289.45201804 -.00000178  00000-0  10000-3 0  3116
2 25630 000.0274 257.3190 0002203 311.6140 060.8738 01.00269391 53608
0 JCSAT 6
1 25630U 99006A   13290.37292707  .00000000  00000-0  10000-3 0  3125
2 25630 000.0308 261.5122 0002469 305.7852 034.9395 01.00266076 53569
0 JCSAT 6
1 25630U 99006A   13292.84424307 -.00000172  00000-0  10000-3 0  3123
2 25630 000.0258 250.1616 0002033 304.8286 219.3820 01.00273287 53646
0 JCSAT 6
1 25630U 99006A   13293.85335947 -.00000171  00000-0  10000-3 0  3136
2 25630 000.0237 250.2153 0002037 304.3300 224.1085 01.00273191 53658
0 JCSAT 6
1 25630U 99006A   13294.87316832 -.00000169  00000-0  10000-3 0  3149
2 25630 000.0216 250.4724 0002040 303.9185 232.4038 01.00273073 53661
